{
  "type": "FeatureCollection",
  "features": [
    {
      "type": "Feature",
      "properties": {
        "norad_id": 56564,
        "name": "BEIDOU-3 G4 (C62)",
        "group": "beidou",
        "lat": 0.40794181535731117,
        "lon": 93.64490940978055,
        "alt_km": 35783.457434119235,
        "timestamp": "2025-12-16T13:52:37.788931+00:00",
        "meta_object_name": "BEIDOU-3 G4 (C62)",
        "meta_object_id": "2023-066A",
        "meta_epoch": "2025-12-15T22:42:35.160192",
        "meta_mean_motion": 1.00271767,
        "meta_eccentricity": 0.00028018,
        "meta_inclination": 0.8078,
        "meta_ra_of_asc_node": 302.302,
        "meta_arg_of_pericenter": 228.5934,
        "meta_mean_anomaly": 54.6581,
        "meta_ephemeris_type": 0,
        "meta_classification_type": "U",
        "meta_norad_cat_id": 56564,
        "meta_element_set_no": 999,
        "meta_rev_at_epoch": 955,
        "meta_bstar": 0,
        "meta_mean_motion_dot": -8.8e-07,
        "meta_mean_motion_ddot": 0,
        "tle_line1": "1 56564U 23066A   25349.94624028 -.00000088  00000+0  00000+0 0  9996",
        "tle_line2": "2 56564   0.8078 302.3020 0002801 228.5934  54.6581  1.00271767  9554"
      },
      "geometry": {
        "type": "Point",
        "coordinates": [
          93.64490940978055,
          0.40794181535731117
        ]
      }
    },
    {
      "type": "Feature",
      "properties": {
        "norad_id": 58654,
        "name": "BEIDOU-3 M28 (C50)",
        "group": "beidou",
        "lat": -53.11400439455231,
        "lon": -45.726175703905206,
        "alt_km": 21527.144334576544,
        "timestamp": "2025-12-16T13:52:37.788943+00:00",
        "meta_object_name": "BEIDOU-3 M28 (C50)",
        "meta_object_id": "2023-207A",
        "meta_epoch": "2025-12-15T15:50:05.112096",
        "meta_mean_motion": 1.8622982,
        "meta_eccentricity": 0.00025263,
        "meta_inclination": 55.587,
        "meta_ra_of_asc_node": 68.5025,
        "meta_arg_of_pericenter": 270.8998,
        "meta_mean_anomaly": 89.0909,
        "meta_ephemeris_type": 0,
        "meta_classification_type": "U",
        "meta_norad_cat_id": 58654,
        "meta_element_set_no": 999,
        "meta_rev_at_epoch": 1342,
        "meta_bstar": 0,
        "meta_mean_motion_dot": -8.4e-07,
        "meta_mean_motion_ddot": 0,
        "tle_line1": "1 58654U 23207A   25349.65978139 -.00000084  00000+0  00000+0 0  9994",
        "tle_line2": "2 58654  55.5870  68.5025 0002526 270.8998  89.0909  1.86229820 13427"
      },
      "geometry": {
        "type": "Point",
        "coordinates": [
          -45.726175703905206,
          -53.11400439455231
        ]
      }
    },
    {
      "type": "Feature",
      "properties": {
        "norad_id": 58655,
        "name": "BEIDOU-3 M26 (C48)",
        "group": "beidou",
        "lat": 25.49625618603126,
        "lon": 87.51713366760386,
        "alt_km": 21532.61336155391,
        "timestamp": "2025-12-16T13:52:37.788954+00:00",
        "meta_object_name": "BEIDOU-3 M26 (C48)",
        "meta_object_id": "2023-207B",
        "meta_epoch": "2025-12-14T09:12:13.791744",
        "meta_mean_motion": 1.86231292,
        "meta_eccentricity": 0.00038911,
        "meta_inclination": 55.5879,
        "meta_ra_of_asc_node": 68.532,
        "meta_arg_of_pericenter": 256.6064,
        "meta_mean_anomaly": 103.3685,
        "meta_ephemeris_type": 0,
        "meta_classification_type": "U",
        "meta_norad_cat_id": 58655,
        "meta_element_set_no": 999,
        "meta_rev_at_epoch": 1338,
        "meta_bstar": 0,
        "meta_mean_motion_dot": -8.4e-07,
        "meta_mean_motion_ddot": 0,
        "tle_line1": "1 58655U 23207B   25348.38349296 -.00000084  00000+0  00000+0 0  9990",
        "tle_line2": "2 58655  55.5879  68.5320 0003891 256.6064 103.3685  1.86231292 13389"
      },
      "geometry": {
        "type": "Point",
        "coordinates": [
          87.51713366760386,
          25.49625618603126
        ]
      }
    },
    {
      "type": "Feature",
      "properties": {
        "norad_id": 61186,
        "name": "BEIDOU-3 M25 (C47)",
        "group": "beidou",
        "lat": 25.339485549613308,
        "lon": 108.92885177947342,
        "alt_km": 21538.1454627599,
        "timestamp": "2025-12-16T13:52:37.788966+00:00",
        "meta_object_name": "BEIDOU-3 M25 (C47)",
        "meta_object_id": "2024-168B",
        "meta_epoch": "2025-12-13T09:51:38.613312",
        "meta_mean_motion": 1.86230198,
        "meta_eccentricity": 0.00054273,
        "meta_inclination": 54.6413,
        "meta_ra_of_asc_node": 308.6962,
        "meta_arg_of_pericenter": 297.8799,
        "meta_mean_anomaly": 246.8955,
        "meta_ephemeris_type": 0,
        "meta_classification_type": "U",
        "meta_norad_cat_id": 61186,
        "meta_element_set_no": 999,
        "meta_rev_at_epoch": 832,
        "meta_bstar": 0,
        "meta_mean_motion_dot": -9.7e-07,
        "meta_mean_motion_ddot": 0,
        "tle_line1": "1 61186U 24168B   25347.41086358 -.00000097  00000+0  00000+0 0  9994",
        "tle_line2": "2 61186  54.6413 308.6962 0005427 297.8799 246.8955  1.86230198  8320"
      },
      "geometry": {
        "type": "Point",
        "coordinates": [
          108.92885177947342,
          25.339485549613308
        ]
      }
    },
    {
      "type": "Feature",
      "properties": {
        "norad_id": 61187,
        "name": "BEIDOU-3 M27 (C49)",
        "group": "beidou",
        "lat": -52.53266931802013,
        "lon": -119.27835311427431,
        "alt_km": 21529.879276120857,
        "timestamp": "2025-12-16T13:52:37.788977+00:00",
        "meta_object_name": "BEIDOU-3 M27 (C49)",
        "meta_object_id": "2024-168C",
        "meta_epoch": "2025-12-14T06:33:38.742048",
        "meta_mean_motion": 1.86230381,
        "meta_eccentricity": 0.00024262,
        "meta_inclination": 54.6359,
        "meta_ra_of_asc_node": 308.6501,
        "meta_arg_of_pericenter": 337.7802,
        "meta_mean_anomaly": 200.2001,
        "meta_ephemeris_type": 0,
        "meta_classification_type": "U",
        "meta_norad_cat_id": 61187,
        "meta_element_set_no": 999,
        "meta_rev_at_epoch": 581,
        "meta_bstar": 0,
        "meta_mean_motion_dot": -9.9e-07,
        "meta_mean_motion_ddot": 0,
        "tle_line1": "1 61187U 24168C   25348.27336507 -.00000099  00000+0  00000+0 0  9996",
        "tle_line2": "2 61187  54.6359 308.6501 0002426 337.7802 200.2001  1.86230381  5815"
      },
      "geometry": {
        "type": "Point",
        "coordinates": [
          -119.27835311427431,
          -52.53266931802013
        ]
      }
    }
  ]
}